{
    "links": {
        "self": "http://www.neowsapp.com/rest/v1/neo/3557483?api_key=iIulBulltgU6a56xZRHN4H3l9WmuAYTsLGpBGhQ2"
    },
    "id": "3557483",
    "neo_reference_id": "3557483",
    "name": "(2011 CV46)",
    "designation": "2011 CV46",
    "nasa_jpl_url": "http://ssd.jpl.nasa.gov/sbdb.cgi?sstr=3557483",
    "absolute_magnitude_h": 24.9,
    "estimated_diameter": {
        "kilometers": {
            "estimated_diameter_min": 0.0278326768,
            "estimated_diameter_max": 0.0622357573
        },
        "meters": {
            "estimated_diameter_min": 27.8326768072,
            "estimated_diameter_max": 62.2357573367
        },
        "miles": {
            "estimated_diameter_min": 0.0172944182,
            "estimated_diameter_max": 0.0386714948
        },
        "feet": {
            "estimated_diameter_min": 91.3145593761,
            "estimated_diameter_max": 204.1855621004
        }
    },
    "is_potentially_hazardous_asteroid": false,
    "close_approach_data": [
        {
            "close_approach_date": "2011-02-12",
            "close_approach_date_full": "2011-Feb-12 04:50",
            "epoch_date_close_approach": 1297486200000,
            "relative_velocity": {
                "kilometers_per_second": "14.4984472862",
                "kilometers_per_hour": "52194.4102304118",
                "miles_per_hour": "32431.5767345578"
            },
            "miss_distance": {
                "astronomical": "0.0518419032",
                "lunar": "20.1665003448",
                "kilometers": "7755438.295466184",
                "miles": "4819005.8965299792"
            },
            "orbiting_body": "Earth"
        }
    ],
    "orbital_data": {
        "orbit_id": "5",
        "orbit_determination_date": "2017-04-06 08:54:30",
        "first_observation_date": "2011-02-11",
        "last_observation_date": "2011-02-12",
        "data_arc_in_days": 1,
        "observations_used": 12,
        "orbit_uncertainty": "9",
        "minimum_orbit_intersection": ".0507716",
        "jupiter_tisserand_invariant": "4.759",
        "epoch_osculation": "2455604.5",
        "eccentricity": ".2296815050876715",
        "semi_major_axis": "1.343567038058799",
        "inclination": "26.43424986521392",
        "ascending_node_longitude": "322.0377610796703",
        "orbital_period": "568.8364768354669",
        "perihelion_distance": "1.034974538571269",
        "perihelion_argument": "189.9641289554839",
        "aphelion_distance": "1.652159537546328",
        "perihelion_time": "2455613.981641737611",
        "mean_anomaly": "353.9993457442652",
        "mean_motion": ".6328708067435138",
        "equinox": "J2000",
        "orbit_class": {
            "orbit_class_type": "AMO",
            "orbit_class_description": "Near-Earth asteroid orbits similar to that of 1221 Amor",
            "orbit_class_range": "1.017 AU < q (perihelion) < 1.3 AU"
        }
    },
    "is_sentry_object": false
}